{
    "links": {
        "self": "http://www.neowsapp.com/rest/v1/neo/54051381?api_key=iIulBulltgU6a56xZRHN4H3l9WmuAYTsLGpBGhQ2"
    },
    "id": "54051381",
    "neo_reference_id": "54051381",
    "name": "(2020 QG5)",
    "designation": "2020 QG5",
    "nasa_jpl_url": "http://ssd.jpl.nasa.gov/sbdb.cgi?sstr=54051381",
    "absolute_magnitude_h": 25.563,
    "estimated_diameter": {
        "kilometers": {
            "estimated_diameter_min": 0.0205094955,
            "estimated_diameter_max": 0.045860626
        },
        "meters": {
            "estimated_diameter_min": 20.5094954547,
            "estimated_diameter_max": 45.8606260208
        },
        "miles": {
            "estimated_diameter_min": 0.0127440057,
            "estimated_diameter_max": 0.0284964631
        },
        "feet": {
            "estimated_diameter_min": 67.2883730675,
            "estimated_diameter_max": 150.4613762742
        }
    },
    "is_potentially_hazardous_asteroid": false,
    "close_approach_data": [
        {
            "close_approach_date": "2020-09-01",
            "close_approach_date_full": "2020-Sep-01 05:30",
            "epoch_date_close_approach": 1598938200000,
            "relative_velocity": {
                "kilometers_per_second": "14.2475541435",
                "kilometers_per_hour": "51291.1949167292",
                "miles_per_hour": "31870.3538636755"
            },
            "miss_distance": {
                "astronomical": "0.0199878286",
                "lunar": "7.7752653254",
                "kilometers": "2990136.584485082",
                "miles": "1857984.7177028516"
            },
            "orbiting_body": "Earth"
        },
        {
            "close_approach_date": "2125-08-22",
            "close_approach_date_full": "2125-Aug-22 18:10",
            "epoch_date_close_approach": 4911559800000,
            "relative_velocity": {
                "kilometers_per_second": "17.1720590253",
                "kilometers_per_hour": "61819.4124911614",
                "miles_per_hour": "38412.1788337441"
            },
            "miss_distance": {
                "astronomical": "0.0705216701",
                "lunar": "27.4329296689",
                "kilometers": "10549891.635802687",
                "miles": "6555398.6846116006"
            },
            "orbiting_body": "Earth"
        }
    ],
    "orbital_data": {
        "orbit_id": "5",
        "orbit_determination_date": "2020-09-02 06:32:30",
        "first_observation_date": "2020-08-16",
        "last_observation_date": "2020-09-01",
        "data_arc_in_days": 16,
        "observations_used": 32,
        "orbit_uncertainty": "7",
        "minimum_orbit_intersection": ".0199454",
        "jupiter_tisserand_invariant": "3.094",
        "epoch_osculation": "2459000.5",
        "eccentricity": ".6596257313469303",
        "semi_major_axis": "2.535708964560338",
        "inclination": "6.862849139428397",
        "ascending_node_longitude": "330.4086872245076",
        "orbital_period": "1474.848924722998",
        "perihelion_distance": ".8630900843292579",
        "perihelion_argument": "60.40552570818554",
        "aphelion_distance": "4.208327844791419",
        "perihelion_time": "2459130.237773316088",
        "mean_anomaly": "328.331943963302",
        "mean_motion": ".2440927975505113",
        "equinox": "J2000",
        "orbit_class": {
            "orbit_class_type": "APO",
            "orbit_class_description": "Near-Earth asteroid orbits which cross the Earth’s orbit similar to that of 1862 Apollo",
            "orbit_class_range": "a (semi-major axis) > 1.0 AU; q (perihelion) < 1.017 AU"
        }
    },
    "is_sentry_object": false
}